IRIDIUM 57 [-]          
1 25273U 98019B   23264.44248419  .00000640  00000+0  21846-3 0  9992
2 25273  86.3951  51.0369 0002093  92.0490 268.0946 14.34901408333733
IRIDIUM 63 [-]          
1 25286U 98021B   23264.28532335  .00000641  00000+0  21641-3 0  9998
2 25286  86.4042 348.0708 0002211  98.0211 262.1236 14.35411327332737
IRIDIUM 69 [-]          
1 25319U 98026A   23264.37478933  .00000981  00000+0  30802-3 0  9999
2 25319  86.4048   3.1865 0001567  22.1760 337.9507 14.39567983331693
IRIDIUM 71 [-]          
1 25320U 98026B   23264.36613255  .00000796  00000+0  24700-3 0  9992
2 25320  86.4040 358.0313 0003447  56.9209 303.2320 14.39908652332208
IRIDIUM 73 [-]          
1 25344U 98032C   23264.59521990  .00000709  00000+0  17796-3 0  9995
2 25344  86.4420 315.8243 0002006  75.6824 284.4603 14.50025651338550
IRIDIUM 82 [-]          
1 25467U 98051A   23264.46224674  .00018424  00000+0  10942-2 0  9995
2 25467  86.3938  52.4932 0150132 125.4084 236.1280 15.02094967327898
IRIDIUM 2 [-]           
1 25527U 98066A   23264.61957018  .00030989  00000+0  77572-3 0  9993
2 25527  85.5171 112.9461 0003461 298.6906  61.3998 15.39941721365987
